OBJECT_NAME,OBJECT_ID,EPOCH,MEAN_MOTION,ECCENTRICITY,INCLINATION,RA_OF_ASC_NODE,ARG_OF_PERICENTER,MEAN_ANOMALY,EPHEMERIS_TYPE,CLASSIFICATION_TYPE,NORAD_CAT_ID,ELEMENT_SET_NO,REV_AT_EPOCH,BSTAR,MEAN_MOTION_DOT,MEAN_MOTION_DDOT
HAWK-5A,2022-057AB,2026-06-17T10:20:17.449728,15.51399329,.00055703,97.6608,327.2934,78.1760,282.0115,0,U,52757,999,22638,.26288337E-3,.15395E-3,0
HAWK-6B,2023-011A,2026-06-16T22:05:55.896576,15.22931782,.00024068,40.4997,353.6260,359.6501,0.4307,0,U,55324,999,18780,.17537433E-3,.4009E-4,0
HAWK-6C,2023-011C,2026-06-17T12:14:50.600832,15.22932377,.00032109,40.4990,347.0252,351.8613,8.2144,0,U,55326,999,18790,.15209816E-3,.345E-4,0
HAWK-6A,2023-011D,2026-06-16T22:05:03.222816,15.22929887,.00030394,40.4996,352.0926,345.3754,14.6967,0,U,55327,999,18781,.17759207E-3,.4062E-4,0
HAWK-7A,2023-054P,2026-06-16T15:38:32.732736,15.27356857,.00043781,97.2703,55.0028,58.7308,301.4359,0,U,56191,999,17694,.17939101E-3,.4734E-4,0
HAWK-7B,2023-054R,2026-06-16T21:55:47.394336,15.27356211,.00037595,97.2726,53.5220,69.4336,290.7307,0,U,56193,999,17698,.17330122E-3,.457E-4,0
HAWK-7C,2023-054Y,2026-06-17T12:04:42.052800,15.27362955,.00036849,97.2702,54.8653,59.9071,300.2534,0,U,56200,999,17707,.17053252E-3,.4497E-4,0
